[{"OBJECT_NAME":"SL-16 R/B","OBJECT_ID":"1993-059B","EPOCH":"2026-04-25T20:04:58.197216","MEAN_MOTION":14.17238794,"ECCENTRICITY":0.00158452,"INCLINATION":70.9893,"RA_OF_ASC_NODE":271.7001,"ARG_OF_PERICENTER":144.5873,"MEAN_ANOMALY":215.6306,"EPHEMERIS_TYPE":0,"CLASSIFICATION_TYPE":"U","NORAD_CAT_ID":22803,"ELEMENT_SET_NO":999,"REV_AT_EPOCH":68621,"BSTAR":9.7292046e-5,"MEAN_MOTION_DOT":1.49e-6,"MEAN_MOTION_DDOT":0},{"OBJECT_NAME":"ARIANE 40 R/B","OBJECT_ID":"1993-061H","EPOCH":"2026-04-25T18:20:07.099584","MEAN_MOTION":14.32884303,"ECCENTRICITY":0.00116008,"INCLINATION":98.4844,"RA_OF_ASC_NODE":183.7037,"ARG_OF_PERICENTER":140.5762,"MEAN_ANOMALY":219.6269,"EPHEMERIS_TYPE":0,"CLASSIFICATION_TYPE":"U","NORAD_CAT_ID":22830,"ELEMENT_SET_NO":999,"REV_AT_EPOCH":70084,"BSTAR":7.0615619e-5,"MEAN_MOTION_DOT":1.5e-6,"MEAN_MOTION_DDOT":0},{"OBJECT_NAME":"COSMOS 2278","OBJECT_ID":"1994-023A","EPOCH":"2026-04-25T15:05:37.656384","MEAN_MOTION":14.14387264,"ECCENTRICITY":0.00104884,"INCLINATION":71.0534,"RA_OF_ASC_NODE":76.8888,"ARG_OF_PERICENTER":308.008,"MEAN_ANOMALY":52.0095,"EPHEMERIS_TYPE":0,"CLASSIFICATION_TYPE":"U","NORAD_CAT_ID":23087,"ELEMENT_SET_NO":999,"REV_AT_EPOCH":65144,"BSTAR":0.00012984758,"MEAN_MOTION_DOT":2.01e-6,"MEAN_MOTION_DDOT":0},{"OBJECT_NAME":"SL-16 R/B","OBJECT_ID":"1994-023B","EPOCH":"2026-04-25T22:29:13.957440","MEAN_MOTION":14.15015319,"ECCENTRICITY":0.00051219,"INCLINATION":71.0002,"RA_OF_ASC_NODE":331.6652,"ARG_OF_PERICENTER":241.7975,"MEAN_ANOMALY":118.2631,"EPHEMERIS_TYPE":0,"CLASSIFICATION_TYPE":"U","NORAD_CAT_ID":23088,"ELEMENT_SET_NO":999,"REV_AT_EPOCH":65277,"BSTAR":9.63224e-6,"MEAN_MOTION_DOT":-2.9e-7,"MEAN_MOTION_DDOT":0},{"OBJECT_NAME":"SL-16 R/B","OBJECT_ID":"1994-074B","EPOCH":"2026-04-25T16:10:58.861632","MEAN_MOTION":14.79455989,"ECCENTRICITY":0.00080169,"INCLINATION":97.7038,"RA_OF_ASC_NODE":144.5737,"ARG_OF_PERICENTER":72.9404,"MEAN_ANOMALY":41.3522,"EPHEMERIS_TYPE":0,"CLASSIFICATION_TYPE":"U","NORAD_CAT_ID":23343,"ELEMENT_SET_NO":999,"REV_AT_EPOCH":69419,"BSTAR":5.3545714e-5,"MEAN_MOTION_DOT":3.51e-6,"MEAN_MOTION_DDOT":0},{"OBJECT_NAME":"SL-16 R/B","OBJECT_ID":"1994-077B","EPOCH":"2026-04-25T19:54:28.234080","MEAN_MOTION":14.15572431,"ECCENTRICITY":3.978e-5,"INCLINATION":70.9828,"RA_OF_ASC_NODE":253.3113,"ARG_OF_PERICENTER":119.2966,"MEAN_ANOMALY":240.8196,"EPHEMERIS_TYPE":0,"CLASSIFICATION_TYPE":"U","NORAD_CAT_ID":23405,"ELEMENT_SET_NO":999,"REV_AT_EPOCH":62290,"BSTAR":6.236115e-5,"MEAN_MOTION_DOT":7.4e-7,"MEAN_MOTION_DDOT":0},{"OBJECT_NAME":"ARIANE 40+ R/B","OBJECT_ID":"1995-021B","EPOCH":"2026-04-25T19:18:53.002368","MEAN_MOTION":14.39803273,"ECCENTRICITY":0.0006722,"INCLINATION":98.443,"RA_OF_ASC_NODE":186.6314,"ARG_OF_PERICENTER":12.0024,"MEAN_ANOMALY":98.2418,"EPHEMERIS_TYPE":0,"CLASSIFICATION_TYPE":"U","NORAD_CAT_ID":23561,"ELEMENT_SET_NO":999,"REV_AT_EPOCH":62602,"BSTAR":8.0601029e-5,"MEAN_MOTION_DOT":2.09e-6,"MEAN_MOTION_DDOT":0},{"OBJECT_NAME":"SL-16 R/B","OBJECT_ID":"1995-058B","EPOCH":"2026-04-25T20:07:49.091232","MEAN_MOTION":14.15505015,"ECCENTRICITY":0.00109448,"INCLINATION":71.0205,"RA_OF_ASC_NODE":81.2643,"ARG_OF_PERICENTER":38.7992,"MEAN_ANOMALY":321.3915,"EPHEMERIS_TYPE":0,"CLASSIFICATION_TYPE":"U","NORAD_CAT_ID":23705,"ELEMENT_SET_NO":999,"REV_AT_EPOCH":57452,"BSTAR":-5.3163e-5,"MEAN_MOTION_DOT":-1.52e-6,"MEAN_MOTION_DDOT":0},{"OBJECT_NAME":"SL-16 R/B","OBJECT_ID":"1996-051B","EPOCH":"2026-04-25T21:47:11.907744","MEAN_MOTION":14.12427857,"ECCENTRICITY":0.0012491,"INCLINATION":70.7602,"RA_OF_ASC_NODE":75.2946,"ARG_OF_PERICENTER":66.1817,"MEAN_ANOMALY":294.0611,"EPHEMERIS_TYPE":0,"CLASSIFICATION_TYPE":"U","NORAD_CAT_ID":24298,"ELEMENT_SET_NO":999,"REV_AT_EPOCH":52831,"BSTAR":7.8037482e-5,"MEAN_MOTION_DOT":9.5e-7,"MEAN_MOTION_DDOT":0},{"OBJECT_NAME":"ORBVIEW 2 (SEASTAR)","OBJECT_ID":"1997-037A","EPOCH":"2026-04-25T21:13:35.679072","MEAN_MOTION":14.35525373,"ECCENTRICITY":0.00010929,"INCLINATION":98.8643,"RA_OF_ASC_NODE":281.4661,"ARG_OF_PERICENTER":288.0379,"MEAN_ANOMALY":72.0687,"EPHEMERIS_TYPE":0,"CLASSIFICATION_TYPE":"U","NORAD_CAT_ID":24883,"ELEMENT_SET_NO":999,"REV_AT_EPOCH":51524,"BSTAR":0.00010783135,"MEAN_MOTION_DOT":2.64e-6,"MEAN_MOTION_DDOT":0},{"OBJECT_NAME":"SL-16 R/B","OBJECT_ID":"1998-043G","EPOCH":"2026-04-25T21:08:55.594464","MEAN_MOTION":14.26059923,"ECCENTRICITY":0.00089161,"INCLINATION":98.8326,"RA_OF_ASC_NODE":69.6025,"ARG_OF_PERICENTER":234.3918,"MEAN_ANOMALY":125.6432,"EPHEMERIS_TYPE":0,"CLASSIFICATION_TYPE":"U","NORAD_CAT_ID":25400,"ELEMENT_SET_NO":999,"REV_AT_EPOCH":44571,"BSTAR":4.519939e-5,"MEAN_MOTION_DOT":6.3e-7,"MEAN_MOTION_DDOT":0},{"OBJECT_NAME":"SL-16 R/B","OBJECT_ID":"1998-045B","EPOCH":"2026-04-25T21:31:55.260768","MEAN_MOTION":14.161968,"ECCENTRICITY":0.00092821,"INCLINATION":71.0098,"RA_OF_ASC_NODE":82.2956,"ARG_OF_PERICENTER":303.2174,"MEAN_ANOMALY":56.8059,"EPHEMERIS_TYPE":0,"CLASSIFICATION_TYPE":"U","NORAD_CAT_ID":25407,"ELEMENT_SET_NO":999,"REV_AT_EPOCH":43378,"BSTAR":-8.048759e-5,"MEAN_MOTION_DOT":-2.07e-6,"MEAN_MOTION_DDOT":0},{"OBJECT_NAME":"ISS (ZARYA)","OBJECT_ID":"1998-067A","EPOCH":"2026-04-25T14:51:50.576832","MEAN_MOTION":15.48952974,"ECCENTRICITY":0.00069494,"INCLINATION":51.632,"RA_OF_ASC_NODE":200.2872,"ARG_OF_PERICENTER":349.7097,"MEAN_ANOMALY":10.3748,"EPHEMERIS_TYPE":0,"CLASSIFICATION_TYPE":"U","NORAD_CAT_ID":25544,"ELEMENT_SET_NO":999,"REV_AT_EPOCH":56360,"BSTAR":0.00019456761,"MEAN_MOTION_DOT":0.00010271,"MEAN_MOTION_DDOT":0},{"OBJECT_NAME":"CZ-4B R/B","OBJECT_ID":"1999-025C","EPOCH":"2026-04-25T17:32:16.640160","MEAN_MOTION":14.18274,"ECCENTRICITY":0.00366221,"INCLINATION":98.6534,"RA_OF_ASC_NODE":158.8769,"ARG_OF_PERICENTER":208.0094,"MEAN_ANOMALY":262.4339,"EPHEMERIS_TYPE":0,"CLASSIFICATION_TYPE":"U","NORAD_CAT_ID":25732,"ELEMENT_SET_NO":999,"REV_AT_EPOCH":39483,"BSTAR":3.6210313e-5,"MEAN_MOTION_DOT":3.2e-7,"MEAN_MOTION_DDOT":0},{"OBJECT_NAME":"OKEAN-O","OBJECT_ID":"1999-039A","EPOCH":"2026-04-25T18:19:16.997952","MEAN_MOTION":14.80402267,"ECCENTRICITY":0.00015182,"INCLINATION":97.9357,"RA_OF_ASC_NODE":175.1541,"ARG_OF_PERICENTER":114.745,"MEAN_ANOMALY":245.392,"EPHEMERIS_TYPE":0,"CLASSIFICATION_TYPE":"U","NORAD_CAT_ID":25860,"ELEMENT_SET_NO":999,"REV_AT_EPOCH":44135,"BSTAR":7.3638433e-5,"MEAN_MOTION_DOT":5.1e-6,"MEAN_MOTION_DDOT":0},{"OBJECT_NAME":"SL-16 R/B","OBJECT_ID":"1999-039B","EPOCH":"2026-04-25T18:23:58.305120","MEAN_MOTION":14.81789935,"ECCENTRICITY":0.00161593,"INCLINATION":97.9878,"RA_OF_ASC_NODE":174.7699,"ARG_OF_PERICENTER":103.8329,"MEAN_ANOMALY":256.4683,"EPHEMERIS_TYPE":0,"CLASSIFICATION_TYPE":"U","NORAD_CAT_ID":25861,"ELEMENT_SET_NO":999,"REV_AT_EPOCH":44383,"BSTAR":6.1455678e-5,"MEAN_MOTION_DOT":4.32e-6,"MEAN_MOTION_DDOT":0},{"OBJECT_NAME":"DELTA 2 R/B","OBJECT_ID":"1999-041E","EPOCH":"2026-04-25T17:28:17.105664","MEAN_MOTION":14.11928757,"ECCENTRICITY":0.05024694,"INCLINATION":51.7596,"RA_OF_ASC_NODE":113.3627,"ARG_OF_PERICENTER":127.1377,"MEAN_ANOMALY":237.6559,"EPHEMERIS_TYPE":0,"CLASSIFICATION_TYPE":"U","NORAD_CAT_ID":25876,"ELEMENT_SET_NO":999,"REV_AT_EPOCH":36967,"BSTAR":0.00013302897,"MEAN_MOTION_DOT":5.81e-6,"MEAN_MOTION_DDOT":0}]
