SL-16 R/B               
1 22803U 93059B   26115.83678469  .00000149  00000+0  97292-4 0  9993
2 22803  70.9893 271.7001 0015845 144.5873 215.6306 14.17238794686218
ARIANE 40 R/B           
1 22830U 93061H   26115.76397106  .00000150  00000+0  70616-4 0  9997
2 22830  98.4844 183.7037 0011600 140.5762 219.6269 14.32884303700846
COSMOS 2278             
1 23087U 94023A   26115.62890806  .00000201  00000+0  12985-3 0  9992
2 23087  71.0534  76.8888 0010488 308.0080  52.0095 14.14387264651448
SL-16 R/B               
1 23088U 94023B   26115.93696710 -.00000029  00000+0  96322-5 0  9993
2 23088  71.0002 331.6652 0005121 241.7975 118.2631 14.15015319652772
SL-16 R/B               
1 23343U 94074B   26115.67429238  .00000351  00000+0  53546-4 0  9990
2 23343  97.7038 144.5737 0008016  72.9404  41.3522 14.79455989694190
SL-16 R/B               
1 23405U 94077B   26115.82949345  .00000074  00000+0  62361-4 0  9992
2 23405  70.9828 253.3113 0000397 119.2966 240.8196 14.15572431622903
ARIANE 40+ R/B          
1 23561U 95021B   26115.80478012  .00000209  00000+0  80601-4 0  9998
2 23561  98.4430 186.6314 0006722  12.0024  98.2418 14.39803273626020
SL-16 R/B               
1 23705U 95058B   26115.83876263 -.00000152  00000+0 -53163-4 0  9993
2 23705  71.0205  81.2643 0010944  38.7992 321.3915 14.15505015574528
SL-16 R/B               
1 24298U 96051B   26115.90777671  .00000095  00000+0  78037-4 0  9997
2 24298  70.7602  75.2946 0012491  66.1817 294.0611 14.12427857528311
ORBVIEW 2 (SEASTAR)     
1 24883U 97037A   26115.88444073  .00000264  00000+0  10783-3 0  9997
2 24883  98.8643 281.4661 0001092 288.0379  72.0687 14.35525373515247
SL-16 R/B               
1 25400U 98043G   26115.88119901  .00000063  00000+0  45199-4 0  9997
2 25400  98.8326  69.6025 0008916 234.3918 125.6432 14.26059923445716
SL-16 R/B               
1 25407U 98045B   26115.89716737 -.00000207  00000+0 -80488-4 0  9999
2 25407  71.0098  82.2956 0009282 303.2174  56.8059 14.16196800433782
ISS (ZARYA)             
1 25544U 98067A   26115.61933538  .00010271  00000+0  19457-3 0  9992
2 25544  51.6320 200.2872 0006949 349.7097  10.3748 15.48952974563604
CZ-4B R/B               
1 25732U 99025C   26115.73074815  .00000032  00000+0  36210-4 0  9994
2 25732  98.6534 158.8769 0036622 208.0094 262.4339 14.18274000394835
OKEAN-O                 
1 25860U 99039A   26115.76339118  .00000510  00000+0  73638-4 0  9990
2 25860  97.9357 175.1541 0001518 114.7450 245.3920 14.80402267441350
SL-16 R/B               
1 25861U 99039B   26115.76664705  .00000432  00000+0  61456-4 0  9992
2 25861  97.9878 174.7699 0016159 103.8329 256.4683 14.81789935443834
DELTA 2 R/B             
1 25876U 99041E   26115.72797576  .00000581  00000+0  13303-3 0  9992
2 25876  51.7596 113.3627 0502469 127.1377 237.6559 14.11928757369673
